[{"OBJECT_NAME":"STARLINK-3248","OBJECT_ID":"2021-115AA","EPOCH":"2025-07-29T20:19:54.098688","MEAN_MOTION":15.08842859,"ECCENTRICITY":0.0001534,"INCLINATION":53.2181,"RA_OF_ASC_NODE":69.078,"ARG_OF_PERICENTER":95.1464,"MEAN_ANOMALY":264.9703,"EPHEMERIS_TYPE":0,"CLASSIFICATION_TYPE":"U","NORAD_CAT_ID":49748,"ELEMENT_SET_NO":999,"REV_AT_EPOCH":20301,"BSTAR":-2.8592e-5,"MEAN_MOTION_DOT":-7.43e-6,"MEAN_MOTION_DDOT":0},{"OBJECT_NAME":"STARLINK-3250","OBJECT_ID":"2021-115AB","EPOCH":"2025-07-29T20:00:12.019680","MEAN_MOTION":15.08836395,"ECCENTRICITY":0.0001351,"INCLINATION":53.2174,"RA_OF_ASC_NODE":69.8012,"ARG_OF_PERICENTER":92.4512,"MEAN_ANOMALY":267.6635,"EPHEMERIS_TYPE":0,"CLASSIFICATION_TYPE":"U","NORAD_CAT_ID":49749,"ELEMENT_SET_NO":999,"REV_AT_EPOCH":20188,"BSTAR":1.4198e-5,"MEAN_MOTION_DOT":-6.2e-7,"MEAN_MOTION_DDOT":0},{"OBJECT_NAME":"STARLINK-3236","OBJECT_ID":"2021-115AC","EPOCH":"2025-07-29T21:30:14.774112","MEAN_MOTION":15.08835112,"ECCENTRICITY":0.0001326,"INCLINATION":53.2176,"RA_OF_ASC_NODE":69.2883,"ARG_OF_PERICENTER":87.4071,"MEAN_ANOMALY":272.7073,"EPHEMERIS_TYPE":0,"CLASSIFICATION_TYPE":"U","NORAD_CAT_ID":49750,"ELEMENT_SET_NO":999,"REV_AT_EPOCH":20190,"BSTAR":3.793e-5,"MEAN_MOTION_DOT":3.16e-6,"MEAN_MOTION_DDOT":0},{"OBJECT_NAME":"STARLINK-3229","OBJECT_ID":"2021-115AD","EPOCH":"2025-07-29T21:02:21.363360","MEAN_MOTION":15.08840143,"ECCENTRICITY":0.0001434,"INCLINATION":53.2174,"RA_OF_ASC_NODE":69.2912,"ARG_OF_PERICENTER":94.2458,"MEAN_ANOMALY":265.8698,"EPHEMERIS_TYPE":0,"CLASSIFICATION_TYPE":"U","NORAD_CAT_ID":49751,"ELEMENT_SET_NO":999,"REV_AT_EPOCH":20190,"BSTAR":1.2796e-5,"MEAN_MOTION_DOT":-8.4e-7,"MEAN_MOTION_DDOT":0},{"OBJECT_NAME":"STARLINK-3209","OBJECT_ID":"2021-115AE","EPOCH":"2025-07-29T20:17:22.976448","MEAN_MOTION":15.08839457,"ECCENTRICITY":0.0001331,"INCLINATION":53.2178,"RA_OF_ASC_NODE":59.5191,"ARG_OF_PERICENTER":87.6339,"MEAN_ANOMALY":272.4805,"EPHEMERIS_TYPE":0,"CLASSIFICATION_TYPE":"U","NORAD_CAT_ID":49752,"ELEMENT_SET_NO":999,"REV_AT_EPOCH":20203,"BSTAR":9.9067e-6,"MEAN_MOTION_DOT":-1.3e-6,"MEAN_MOTION_DDOT":0},{"OBJECT_NAME":"STARLINK-3200","OBJECT_ID":"2021-115AF","EPOCH":"2025-07-29T19:48:10.895904","MEAN_MOTION":15.08835991,"ECCENTRICITY":0.0001402,"INCLINATION":53.2173,"RA_OF_ASC_NODE":69.5971,"ARG_OF_PERICENTER":102.4768,"MEAN_ANOMALY":257.6381,"EPHEMERIS_TYPE":0,"CLASSIFICATION_TYPE":"U","NORAD_CAT_ID":49753,"ELEMENT_SET_NO":999,"REV_AT_EPOCH":20189,"BSTAR":4.1251e-5,"MEAN_MOTION_DOT":3.69e-6,"MEAN_MOTION_DDOT":0},{"OBJECT_NAME":"STARLINK-3193","OBJECT_ID":"2021-115AG","EPOCH":"2025-07-29T20:21:18.497664","MEAN_MOTION":15.08846924,"ECCENTRICITY":0.0001335,"INCLINATION":53.2175,"RA_OF_ASC_NODE":59.6009,"ARG_OF_PERICENTER":88.4202,"MEAN_ANOMALY":271.6943,"EPHEMERIS_TYPE":0,"CLASSIFICATION_TYPE":"U","NORAD_CAT_ID":49754,"ELEMENT_SET_NO":999,"REV_AT_EPOCH":20203,"BSTAR":6.697e-5,"MEAN_MOTION_DOT":7.78e-6,"MEAN_MOTION_DDOT":0},{"OBJECT_NAME":"STARLINK-3210","OBJECT_ID":"2021-115AH","EPOCH":"2025-07-29T21:40:51.599136","MEAN_MOTION":15.08840808,"ECCENTRICITY":0.0001328,"INCLINATION":53.218,"RA_OF_ASC_NODE":69.2985,"ARG_OF_PERICENTER":99.0283,"MEAN_ANOMALY":261.0859,"EPHEMERIS_TYPE":0,"CLASSIFICATION_TYPE":"U","NORAD_CAT_ID":49755,"ELEMENT_SET_NO":999,"REV_AT_EPOCH":20190,"BSTAR":-4.57e-5,"MEAN_MOTION_DOT":-1.015e-5,"MEAN_MOTION_DDOT":0},{"OBJECT_NAME":"STARLINK-3207","OBJECT_ID":"2021-115AJ","EPOCH":"2025-07-29T23:42:39.778560","MEAN_MOTION":15.08842976,"ECCENTRICITY":0.0001334,"INCLINATION":53.2177,"RA_OF_ASC_NODE":58.8693,"ARG_OF_PERICENTER":90.5772,"MEAN_ANOMALY":269.5373,"EPHEMERIS_TYPE":0,"CLASSIFICATION_TYPE":"U","NORAD_CAT_ID":49756,"ELEMENT_SET_NO":999,"REV_AT_EPOCH":20316,"BSTAR":4.8622e-5,"MEAN_MOTION_DOT":4.86e-6,"MEAN_MOTION_DDOT":0},{"OBJECT_NAME":"STARLINK-3197","OBJECT_ID":"2021-115AK","EPOCH":"2025-07-29T20:22:40.749600","MEAN_MOTION":15.0884862,"ECCENTRICITY":0.0001423,"INCLINATION":53.2166,"RA_OF_ASC_NODE":59.5017,"ARG_OF_PERICENTER":84.8906,"MEAN_ANOMALY":275.2249,"EPHEMERIS_TYPE":0,"CLASSIFICATION_TYPE":"U","NORAD_CAT_ID":49757,"ELEMENT_SET_NO":999,"REV_AT_EPOCH":20203,"BSTAR":1.3631e-5,"MEAN_MOTION_DOT":-7.1e-7,"MEAN_MOTION_DDOT":0},{"OBJECT_NAME":"STARLINK-3194","OBJECT_ID":"2021-115AL","EPOCH":"2025-07-29T20:42:29.820960","MEAN_MOTION":15.08838571,"ECCENTRICITY":0.0001368,"INCLINATION":53.2171,"RA_OF_ASC_NODE":59.4317,"ARG_OF_PERICENTER":84.635,"MEAN_ANOMALY":275.4798,"EPHEMERIS_TYPE":0,"CLASSIFICATION_TYPE":"U","NORAD_CAT_ID":49758,"ELEMENT_SET_NO":999,"REV_AT_EPOCH":20203,"BSTAR":5.4342e-6,"MEAN_MOTION_DOT":-2.01e-6,"MEAN_MOTION_DDOT":0},{"OBJECT_NAME":"STARLINK-3204","OBJECT_ID":"2021-115AM","EPOCH":"2025-07-29T23:37:22.494432","MEAN_MOTION":15.08848257,"ECCENTRICITY":0.0001319,"INCLINATION":53.2183,"RA_OF_ASC_NODE":58.8859,"ARG_OF_PERICENTER":85.851,"MEAN_ANOMALY":274.2633,"EPHEMERIS_TYPE":0,"CLASSIFICATION_TYPE":"U","NORAD_CAT_ID":49759,"ELEMENT_SET_NO":999,"REV_AT_EPOCH":20316,"BSTAR":0.00010444,"MEAN_MOTION_DOT":1.375e-5,"MEAN_MOTION_DDOT":0},{"OBJECT_NAME":"STARLINK-3199","OBJECT_ID":"2021-115AN","EPOCH":"2025-07-29T20:53:05.768160","MEAN_MOTION":15.08835078,"ECCENTRICITY":0.0001237,"INCLINATION":53.2177,"RA_OF_ASC_NODE":59.396,"ARG_OF_PERICENTER":86.9348,"MEAN_ANOMALY":273.1786,"EPHEMERIS_TYPE":0,"CLASSIFICATION_TYPE":"U","NORAD_CAT_ID":49760,"ELEMENT_SET_NO":999,"REV_AT_EPOCH":20204,"BSTAR":1.3183e-5,"MEAN_MOTION_DOT":-7.8e-7,"MEAN_MOTION_DDOT":0},{"OBJECT_NAME":"STARLINK-3203","OBJECT_ID":"2021-115AP","EPOCH":"2025-07-29T20:37:11.663328","MEAN_MOTION":15.08843695,"ECCENTRICITY":0.0001338,"INCLINATION":53.2178,"RA_OF_ASC_NODE":59.4469,"ARG_OF_PERICENTER":93.4026,"MEAN_ANOMALY":266.712,"EPHEMERIS_TYPE":0,"CLASSIFICATION_TYPE":"U","NORAD_CAT_ID":49761,"ELEMENT_SET_NO":999,"REV_AT_EPOCH":20203,"BSTAR":1.8298e-5,"MEAN_MOTION_DOT":3.0e-8,"MEAN_MOTION_DDOT":0},{"OBJECT_NAME":"STARLINK-3195","OBJECT_ID":"2021-115AQ","EPOCH":"2025-07-29T21:03:41.928768","MEAN_MOTION":15.08835086,"ECCENTRICITY":0.0001375,"INCLINATION":53.2175,"RA_OF_ASC_NODE":59.3637,"ARG_OF_PERICENTER":91.3515,"MEAN_ANOMALY":268.7635,"EPHEMERIS_TYPE":0,"CLASSIFICATION_TYPE":"U","NORAD_CAT_ID":49762,"ELEMENT_SET_NO":999,"REV_AT_EPOCH":20315,"BSTAR":-1.3546e-5,"MEAN_MOTION_DOT":-5.03e-6,"MEAN_MOTION_DDOT":0},{"OBJECT_NAME":"STARLINK-3198","OBJECT_ID":"2021-115AR","EPOCH":"2025-07-29T23:58:33.901536","MEAN_MOTION":15.08839328,"ECCENTRICITY":0.0001396,"INCLINATION":53.2179,"RA_OF_ASC_NODE":58.8191,"ARG_OF_PERICENTER":92.6391,"MEAN_ANOMALY":267.4761,"EPHEMERIS_TYPE":0,"CLASSIFICATION_TYPE":"U","NORAD_CAT_ID":49763,"ELEMENT_SET_NO":999,"REV_AT_EPOCH":20317,"BSTAR":1.8784e-5,"MEAN_MOTION_DOT":1.1e-7,"MEAN_MOTION_DDOT":0},{"OBJECT_NAME":"STARLINK-3227","OBJECT_ID":"2021-115AT","EPOCH":"2025-07-30T00:10:32.610432","MEAN_MOTION":15.08839202,"ECCENTRICITY":0.0001306,"INCLINATION":53.2173,"RA_OF_ASC_NODE":58.7912,"ARG_OF_PERICENTER":91.6488,"MEAN_ANOMALY":268.4654,"EPHEMERIS_TYPE":0,"CLASSIFICATION_TYPE":"U","NORAD_CAT_ID":49765,"ELEMENT_SET_NO":999,"REV_AT_EPOCH":20317,"BSTAR":3.0639e-5,"MEAN_MOTION_DOT":2.0e-6,"MEAN_MOTION_DDOT":0}]
