STARLINK-3248           
1 49748U 21115AA  25210.84715392 -.00000743  00000+0 -28592-4 0  9996
2 49748  53.2181  69.0780 0001534  95.1464 264.9703 15.08842859203013
STARLINK-3250           
1 49749U 21115AB  25210.83347245 -.00000062  00000+0  14198-4 0  9994
2 49749  53.2174  69.8012 0001351  92.4512 267.6635 15.08836395201888
STARLINK-3236           
1 49750U 21115AC  25210.89600433  .00000316  00000+0  37930-4 0  9993
2 49750  53.2176  69.2883 0001326  87.4071 272.7073 15.08835112201900
STARLINK-3229           
1 49751U 21115AD  25210.87663615 -.00000084  00000+0  12796-4 0  9999
2 49751  53.2174  69.2912 0001434  94.2458 265.8698 15.08840143201903
STARLINK-3209           
1 49752U 21115AE  25210.84540482 -.00000130  00000+0  99067-5 0  9992
2 49752  53.2178  59.5191 0001331  87.6339 272.4805 15.08839457202034
STARLINK-3200           
1 49753U 21115AF  25210.82512611  .00000369  00000+0  41251-4 0  9998
2 49753  53.2173  69.5971 0001402 102.4768 257.6381 15.08835991201894
STARLINK-3193           
1 49754U 21115AG  25210.84813076  .00000778  00000+0  66970-4 0  9999
2 49754  53.2175  59.6009 0001335  88.4202 271.6943 15.08846924202035
STARLINK-3210           
1 49755U 21115AH  25210.90337499 -.00001015  00000+0 -45700-4 0  9992
2 49755  53.2180  69.2985 0001328  99.0283 261.0859 15.08840808201900
STARLINK-3207           
1 49756U 21115AJ  25210.98796040  .00000486  00000+0  48622-4 0  9997
2 49756  53.2177  58.8693 0001334  90.5772 269.5373 15.08842976203165
STARLINK-3197           
1 49757U 21115AK  25210.84908275 -.00000071  00000+0  13631-4 0  9991
2 49757  53.2166  59.5017 0001423  84.8906 275.2249 15.08848620202039
STARLINK-3194           
1 49758U 21115AL  25210.86284515 -.00000201  00000+0  54342-5 0  9998
2 49758  53.2171  59.4317 0001368  84.6350 275.4798 15.08838571202032
STARLINK-3204           
1 49759U 21115AM  25210.98428813  .00001375  00000+0  10444-3 0  9998
2 49759  53.2183  58.8859 0001319  85.8510 274.2633 15.08848257203169
STARLINK-3199           
1 49760U 21115AN  25210.87020565 -.00000078  00000+0  13183-4 0  9994
2 49760  53.2177  59.3960 0001237  86.9348 273.1786 15.08835078202043
STARLINK-3203           
1 49761U 21115AP  25210.85916277  .00000003  00000+0  18298-4 0  9996
2 49761  53.2178  59.4469 0001338  93.4026 266.7120 15.08843695202031
STARLINK-3195           
1 49762U 21115AQ  25210.87756862 -.00000503  00000+0 -13546-4 0  9999
2 49762  53.2175  59.3637 0001375  91.3515 268.7635 15.08835086203158
STARLINK-3198           
1 49763U 21115AR  25210.99900349  .00000011  00000+0  18784-4 0  9995
2 49763  53.2179  58.8191 0001396  92.6391 267.4761 15.08839328203172
STARLINK-3227           
1 49765U 21115AT  25211.00732188  .00000200  00000+0  30639-4 0  9997
2 49765  53.2173  58.7912 0001306  91.6488 268.4654 15.08839202203178
